STARLINK-31818          
1 59741U 24090M   26068.33676927 -.00000111  00000+0  54865-5 0  9992
2 59741  43.0020 185.7023 0001345 272.2238  87.8460 15.27574138103383
FLOCK 4G-24             
1 62637U 25009AE  26068.72509072  .00010513  00000+0  38996-3 0  9991
2 62637  97.4061 151.5140 0001802 280.2808  79.8228 15.27784978 63732
