[{"OBJECT_NAME":"STARLINK-31818","OBJECT_ID":"2024-090M","EPOCH":"2026-03-09T08:04:56.864928","MEAN_MOTION":15.27574138,"ECCENTRICITY":0.0001345,"INCLINATION":43.002,"RA_OF_ASC_NODE":185.7023,"ARG_OF_PERICENTER":272.2238,"MEAN_ANOMALY":87.846,"EPHEMERIS_TYPE":0,"CLASSIFICATION_TYPE":"U","NORAD_CAT_ID":59741,"ELEMENT_SET_NO":999,"REV_AT_EPOCH":10338,"BSTAR":5.486458e-6,"MEAN_MOTION_DOT":-1.11e-6,"MEAN_MOTION_DDOT":0},{"OBJECT_NAME":"FLOCK 4G-24","OBJECT_ID":"2025-009AE","EPOCH":"2026-03-09T17:24:07.838208","MEAN_MOTION":15.27784978,"ECCENTRICITY":0.0001802,"INCLINATION":97.4061,"RA_OF_ASC_NODE":151.514,"ARG_OF_PERICENTER":280.2808,"MEAN_ANOMALY":79.8228,"EPHEMERIS_TYPE":0,"CLASSIFICATION_TYPE":"U","NORAD_CAT_ID":62637,"ELEMENT_SET_NO":999,"REV_AT_EPOCH":6373,"BSTAR":0.00038996067,"MEAN_MOTION_DOT":0.00010513,"MEAN_MOTION_DDOT":0}]
